OPTICUBE 04             
1 41851U 16067D   19119.20826470  .00000479  00000-0  47109-4 0  9994
2 41851  97.9128 216.2197 0008942 183.5874 176.5284 14.96785481134367
AEROCUBE 8D             
1 41852U 16067E   19119.80946998  .00000641  00000-0  61478-4 0  9995
2 41852  97.9141 216.6533 0009755 182.1177 178.0004 14.96683073134434
AEROCUBE 8C             
1 41853U 16067F   19119.22946645  .00000320  00000-0  33330-4 0  9991
2 41853  97.9146 216.0071 0009754 185.0050 175.1075 14.96652678134345
PROMETHEUS 2-1          
1 41854U 16067G   19119.20386306  .00000560  00000-0  54170-4 0  9993
2 41854  97.9144 216.0933 0010415 186.0611 174.0485 14.96845455134341
PROMETHEUS 2-3          
1 41855U 16067H   19119.20637108  .00000687  00000-0  65154-4 0  9997
2 41855  97.9147 216.1096 0010570 186.2036 173.9056 14.96850839134345
INS-1B                  
1 41954U 17008G   19119.65665583  .00001092  00000-0  48260-4 0  9990
2 41954  97.4037 185.3473 0008175 331.0485  29.0298 15.23812834122182
BGUSAT                  
1 41999U 17008BD  19119.77603945  .00001881  00000-0  76199-4 0  9994
2 41999  97.4102 187.6244 0007422 348.2522  11.8542 15.25895453121686
DIDO-2                  
1 42000U 17008BE  19118.92240422  .00000798  00000-0  36060-4 0  9990
2 42000  97.4050 185.1624 0008136 354.9852   5.1302 15.23798779121478
PEASSS                  
1 42015U 17008BV  19118.85217157  .00000995  00000-0  43084-4 0  9990
2 42015  97.4057 185.9711 0006248   4.9671 355.1627 15.24738271122009
AL-FARABI 1             
1 42016U 17008BW  19119.13397574  .00001326  00000-0  55447-4 0  9990
2 42016  97.4070 186.7329 0006018   3.8488 356.2795 15.25339401122199
NAYIF-1 (EO-88)         
1 42017U 17008BX  19119.84416270  .00001308  00000-0  54701-4 0  9996
2 42017  97.4067 187.4456 0005957   1.6736 358.4521 15.25372953122323
PHOENIX                 
1 42706U 98067LP  19119.56917464  .00469715  12201-3  49331-3 0  9996
2 42706  51.6173 158.1937 0008620  16.4024 343.7267 16.09699477111914
ALTAIR PATHFINDER       
1 42711U 98067LS  19119.78946974  .00027343  00000-0  16596-3 0  9999
2 42711  51.6351 187.9755 0004205 330.9694  29.1072 15.77299559111200
SHARC                   
1 42712U 98067LT  19119.62204887  .01004181  67702-3  69846-3 0  9990
2 42712  51.6199 174.5834 0009926   2.6929 357.4139 16.15738732111609
ZA-AEROSAT              
1 42713U 98067LU  19119.58477654  .00140934  19249-4  31204-3 0  9997
2 42713  51.6265 166.0154 0007599   8.0256 352.0873 15.97638957111470
NJUST-1                 
1 42722U 98067MB  19119.59297301  .00075092  00000-0  25745-3 0  9993
2 42722  51.6350 173.4954 0007486   6.4255 115.8274 15.88954464110441
NSIGHT                  
1 42726U 98067MF  19119.82103740  .00016357  00000-0  14108-3 0  9996
2 42726  51.6365 203.4506 0005941 345.5207  14.5619 15.69403459109983
BEEAGLESAT              
1 42736U 98067MR  19116.58349394  .05344197  12378-4  56382-3 0  9990
2 42736  51.6116 172.4218 0006034 335.7210 140.8917 16.36759636110007
UCLSAT                  
1 42765U 17036A   19119.85597786  .00001077  00000-0  49215-4 0  9997
2 42765  97.3558 178.9206 0012805  51.2646 308.9733 15.22617923102886
LITUANICASAT-2          
1 42768U 17036D   19119.70372989  .00001845  00000-0  82189-4 0  9990
2 42768  97.3592 178.3496 0016213  41.6757 318.5711 15.22587338102705
AALTO-1                 
1 42775U 17036L   19119.67303626  .00000698  00000-0  34237-4 0  9992
2 42775  97.3545 177.6041 0015084  41.6572 318.5810 15.21251494102608
URSA MAIOR              
1 42776U 17036M   19118.91453585  .00000769  00000-0  37296-4 0  9996
2 42776  97.3555 176.9945 0014962  44.1797 316.0630 15.21375959102499
COMPASS 2               
1 42777U 17036N   19119.20007666  .00001494  00000-0  66892-4 0  9995
2 42777  97.3591 178.3087 0013715  45.3256 314.9096 15.22720630102585
DIAMOND RED             
1 42783U 17036U   19119.81798290  .00000892  00000-0  41902-4 0  9995
2 42783  97.3559 178.5254 0013501  51.8382 308.4068 15.22091927102665
PEGASUS                 
1 42784U 17036V   19119.21487702  .00001062  00000-0  48900-4 0  9998
2 42784  97.3564 178.1304 0013423  53.3386 306.9082 15.22370991102589
DIAMOND GREEN           
1 42785U 17036W   19118.83069424  .00000923  00000-0  43268-4 0  9990
2 42785  97.3562 177.5819 0013479  55.5647 304.6861 15.22090011102501
DIAMOND BLUE            
1 42786U 17036X   19119.42138266  .00000900  00000-0  42264-4 0  9998
2 42786  97.3562 178.1586 0013290  53.9596 306.2869 15.22089869102590
NUDTSAT                 
1 42787U 17036Y   19119.11226993  .00001661  00000-0  72901-4 0  9996
2 42787  97.3584 178.6258 0013459  49.1276 311.1125 15.23273937102441
SUCHAI                  
1 42788U 17036Z   19119.10393242  .00001239  00000-0  55941-4 0  9994
2 42788  97.3568 178.2868 0012989  53.3771 306.8658 15.22762611102657
SKCUBE                  
1 42789U 17036AA  19118.91939124  .00001149  00000-0  52227-4 0  9992
2 42789  97.3564 178.0589 0012861  54.1304 306.1125 15.22671625102546
VZLUSAT-1               
1 42790U 17036AB  19118.70499582  .00001537  00000-0  67676-4 0  9995
2 42790  97.3578 178.2298 0012436  54.4785 305.7610 15.23274946102535
ROBUSTA-1B              
1 42792U 17036AD  19118.85570755  .00001153  00000-0  52169-4 0  9990
2 42792  97.3564 178.1309 0012467  55.1023 305.1383 15.22834450102555
CICERO 6                
1 42793U 17036AE  19119.75731441  .00000778  00000-0  36540-4 0  9999
2 42793  97.3548 178.8404 0011683  53.9369 306.2948 15.22477053102752
D-SAT                   
1 42794U 17036AF  19119.67842486  .00000233  00000-0  25910-4 0  9998
2 42794  97.5452 166.5648 0125359 308.8032  50.2044 14.91066579100885
TOKI                    
1 42820U 98067MU  19119.60562992  .01168773  11853-4  60390-3 0  9992
2 42820  51.6230 162.1828 0008193   5.4398 354.6714 16.19572815103877
MAZAALAI (NUMSAT-1)     
1 42822U 98067MW  19119.79616139  .00396051  86378-4  47055-3 0  9995
2 42822  51.6228 164.3256 0009259  10.5619 349.5587 16.07796455103845
BRAC ONNESHA            
1 42823U 98067MX  19119.80811688  .00647707  24567-3  53860-3 0  9993
2 42823  51.6192 162.8412 0009293   7.6888 352.4268 16.13144637103863
NIGERIAEDUSAT-1         
1 42824U 98067MY  19119.80291830  .00338685  64171-4  44884-3 0  9999
2 42824  51.6239 165.1979 0009692   8.0514 352.0653 16.06076396103822
CORVUS BC2              
1 42846U 17042X   19119.17734822  .00000217  00000-0  26726-4 0  9990
2 42846  97.5714  15.1778 0008566 216.1659 143.8982 14.91952045 97486
CORVUS BC1              
1 42847U 17042Y   19119.67047952  .00000168  00000-0  21825-4 0  9997
2 42847  97.5714  15.7497 0008259 213.7427 146.3268 14.92052438 97557
MIRATA                  
1 43015U 17073C   19119.21157240  .00001165  00000-0  96860-4 0  9990
2 43015  97.7193  42.3901 0254938 322.6044  35.7658 14.78889308 77837
MAKERSAT 0              
1 43016U 17073D   19119.69141917  .00000755  00000-0  64779-4 0  9995
2 43016  97.7227  43.0462 0256925 321.3025  37.0019 14.78670319 77891
ASTERIA                 
1 43020U 98067NH  19119.75479916  .00022015  00000-0  19372-3 0  9993
2 43020  51.6421 214.4279 0002641 319.7680  40.3122 15.68690165 82016
DELLINGR (RBLE)         
1 43021U 98067NJ  19119.76769583  .00007607  00000-0  90255-4 0  9997
2 43021  51.6381 224.1686 0002159 285.7676  74.3080 15.62305522 81881
AEROCUBE 7B (OCSD B)    
1 43042U 17071F   19119.11702706  .00003375  00000-0  90548-4 0  9992
2 43042  51.6386 300.1248 0004291 338.2856  21.7946 15.40887783 78288
AEROCUBE 7C (OCSD C)    
1 43043U 17071G   19118.98722608  .00003088  00000-0  83717-4 0  9991
2 43043  51.6386 300.7716 0004485 339.8620  20.2188 15.40871303 78234
CHEFSAT                 
1 43044U 17071H   19118.99602105  .00005386  00000-0  12827-3 0  9998
2 43044  51.6384 296.4291 0004172 337.4434  22.6368 15.43267979 78295
ASGARDIA 1              
1 43049U 17071N   19119.07308396  .00002795  00000-0  76379-4 0  9992
2 43049  51.6392 299.8689 0002204   6.8948 353.2067 15.40999629 78243
ISARA                   
1 43050U 17071P   19119.51374597  .00004911  00000-0  11958-3 0  9992
2 43050  51.6378 294.6005 0001896   4.1089 355.9912 15.42803326 78357
PROPCUBE 2 (FAUNA)      
1 43052U 17071R   19119.67113391  .00002935  00000-0  79058-4 0  9994
2 43052  51.6388 296.3791 0002057   5.5297 354.5711 15.41258158 78344
CORVUS BC3              
1 43118U 18004H   19119.66585749  .00000698  00000-0  32920-4 0  9994
2 43118  97.4902 187.1790 0012060  71.0971 289.1572 15.22758636 71868
MICROMAS-2A             
1 43131U 18004W   19119.18704747  .00001766  00000-0  75967-4 0  9992
2 43131  97.4925 187.2781 0011093  74.9257 285.3206 15.23926500 71829
CICERO 7                
1 43143U 18004AJ  19119.67497186  .00001331  00000-0  57748-4 0  9990
2 43143  97.4913 187.9771 0009293  81.9443 278.2848 15.24093459 71911
GOMX-4B                 
1 43196U 18015E   19119.53805674  .00000512  00000-0  24062-4 0  9993
2 43196  97.3817 247.8124 0019915 121.0101 239.3095 15.23892143 68709
GOMX-4A                 
1 43197U 18015F   19119.80912808  .00000519  00000-0  24269-4 0  9998
2 43197  97.3837 248.1010 0020904 120.8735   9.4259 15.23981311 68759
1KUNS-PF                
1 43466U 98067NP  19119.73458740  .00016215  00000-0  17092-3 0  9999
2 43466  51.6374 227.6805 0001341 314.0152  46.0732 15.64412837 55098
UBAKUSAT                
1 43467U 98067NQ  19119.77455093  .00011278  00000-0  13391-3 0  9994
2 43467  51.6370 230.1929 0002223 252.8695 107.2056 15.61711583 55076
BATSU-CS1 (IRAZU)       
1 43468U 98067NR  19119.73981943  .00021854  00000-0  20944-3 0  9992
2 43468  51.6365 225.4536 0001797 320.6541  39.4324 15.66582363155118
CUBERRT                 
1 43546U 98067NU  19119.78860990  .00024632  00000-0  27307-3 0  9999
2 43546  51.6377 231.7825 0005725 309.1994  50.8492 15.62795847 45185
